NORAD_CAT_ID,OBJECT_NAME,OBJECT_TYPE,EPOCH,MEAN_MOTION,ECCENTRICITY,INCLINATION,RA_OF_ASC_NODE,ARG_OF_PERICENTER,MEAN_ANOMALY,BSTAR,MEAN_MOTION_DOT,MEAN_MOTION_DDOT,TLE_LINE0,TLE_LINE1,TLE_LINE2,SEMIMAJOR_AXIS,PERIOD,APOGEE,PERIGEE,DECAYED
51737.0,STARLINK-3509,PAYLOAD,2023-11-18 11:30:32,15.08839163,0.0001091,53.2152,139.9475,91.4667,268.645,0.00014448,2.012e-05,0.0,0 STARLINK-3509,1 51737U 22016Z   23322.47953878  .00002012  00000-0  14448-3 0  9996,2 51737  53.2152 139.9475 0001091  91.4667 268.6450 15.08839163 97477,6917.883,95.438,540.503,538.993,0.0
51737.0,STARLINK-3509,PAYLOAD,2023-11-19 11:21:19,15.0884427,0.0001132,53.2162,135.4868,89.3646,270.7476,0.00011459,1.537e-05,0.0,0 STARLINK-3509,1 51737U 22016Z   23323.47313693  .00001537  00000-0  11459-3 0  9992,2 51737  53.2162 135.4868 0001132  89.3646 270.7476 15.08844270 96560,6917.867,95.437,540.515,538.949,0.0
51737.0,STARLINK-3509,PAYLOAD,2023-11-19 19:18:14,15.08847371,0.0001,53.2157,134.0002,89.9242,270.1865,0.00011756,1.584e-05,0.0,0 STARLINK-3509,1 51737U 22016Z   23323.80433364  .00001584  00000-0  11756-3 0  9999,2 51737  53.2157 134.0002 0001000  89.9242 270.1865 15.08847371 97675,6917.858,95.437,540.415,539.031,0.0
51737.0,STARLINK-3509,PAYLOAD,2023-11-19 20:53:37,15.088468,0.0001015,53.2155,133.7025,90.215,269.8959,0.00010956,1.457e-05,0.0,0 STARLINK-3509,1 51737U 22016Z   23323.87057318  .00001457  00000-0  10956-3 0  9997,2 51737  53.2155 133.7025 0001015  90.2150 269.8959 15.08846800 96622,6917.86,95.437,540.427,539.022,0.0
51737.0,STARLINK-3509,PAYLOAD,2023-11-20 12:47:29,15.08842631,0.0001036,53.2154,130.7286,89.9547,270.1564,8.9351e-05,1.135e-05,0.0,0 STARLINK-3509,1 51737U 22016Z   23324.53297601  .00001135  00000-0  89351-4 0  9991,2 51737  53.2154 130.7286 0001036  89.9547 270.1564 15.08842631 96721,6917.872,95.437,540.454,539.021,0.0
51737.0,STARLINK-3509,PAYLOAD,2023-11-20 17:33:38,15.08845219,0.000102,53.2157,129.8365,90.6888,269.4221,0.00010538,1.39e-05,0.0,0 STARLINK-3509,1 51737U 22016Z   23324.73169341  .00001390  00000-0  10538-3 0  9995,2 51737  53.2157 129.8365 0001020  90.6888 269.4221 15.08845219 97818,6917.864,95.437,540.435,539.024,0.0
51737.0,STARLINK-3509,PAYLOAD,2023-11-21 11:02:53,15.08841457,0.0001006,53.2158,126.5654,89.8215,270.2892,4.1611e-05,3.75e-06,0.0,0 STARLINK-3509,1 51737U 22016Z   23325.46033626  .00000375  00000-0  41611-4 0  9991,2 51737  53.2158 126.5654 0001006  89.8215 270.2892 15.08841457 97928,6917.876,95.437,540.437,539.045,0.0
51737.0,STARLINK-3509,PAYLOAD,2023-11-21 17:24:25,15.08844137,0.0001035,53.216,125.3756,92.8086,267.3025,3.8676e-05,3.28e-06,0.0,0 STARLINK-3509,1 51737U 22016Z   23325.72529393  .00000328  00000-0  38676-4 0  9996,2 51737  53.2160 125.3756 0001035  92.8086 267.3025 15.08844137 96903,6917.868,95.437,540.449,539.017,0.0
51737.0,STARLINK-3509,PAYLOAD,2023-11-22 14:04:26,15.08844321,0.0001003,53.2162,121.5104,90.2906,269.8201,8.1187e-05,1.005e-05,0.0,0 STARLINK-3509,1 51737U 22016Z   23326.58641259  .00001005  00000-0  81187-4 0  9995,2 51737  53.2162 121.5104 0001003  90.2906 269.8201 15.08844321 97031,6917.867,95.437,540.426,539.038,0.0
51737.0,STARLINK-3509,PAYLOAD,2023-11-22 17:15:12,15.0884807,0.0001028,53.2163,120.9157,90.6288,269.4822,0.00010543,1.391e-05,0.0,0 STARLINK-3509,1 51737U 22016Z   23326.71888937  .00001391  00000-0  10543-3 0  9991,2 51737  53.2163 120.9157 0001028  90.6288 269.4822 15.08848070 98117,6917.856,95.437,540.432,539.01,0.0
51737.0,STARLINK-3509,PAYLOAD,2023-11-23 10:44:27,15.08836616,0.0001216,53.2173,117.6467,88.3558,271.7573,1.3577e-05,-7.2e-07,0.0,0 STARLINK-3509,1 51737U 22016Z   23327.44754039 -.00000072  00000-0  13577-4 0  9994,2 51737  53.2173 117.6467 0001216  88.3558 271.7573 15.08836616 98222,6917.891,95.438,540.597,538.915,0.0
51737.0,STARLINK-3509,PAYLOAD,2023-11-23 13:55:15,15.08767469,8.96e-05,53.2169,117.0515,112.957,247.1516,0.0010096,0.00015785,0.0,0 STARLINK-3509,1 51737U 22016Z   23327.58004344  .00015785  00000-0  10096-2 0  9993,2 51737  53.2169 117.0515 0000896 112.9570 247.1516 15.08767469 97183,6918.102,95.442,540.587,539.347,0.0
51737.0,STARLINK-3509,PAYLOAD,2023-11-23 17:06:00,15.08834355,0.0001317,53.2174,116.4575,96.1244,263.9898,3.4352e-05,2.59e-06,0.0,0 STARLINK-3509,1 51737U 22016Z   23327.71250148  .00000259  00000-0  34352-4 0  9996,2 51737  53.2174 116.4575 0001317  96.1244 263.9898 15.08834355 97209,6917.898,95.438,540.674,538.852,0.0
51737.0,STARLINK-3509,PAYLOAD,2023-11-24 13:46:01,15.08838499,0.0001333,53.2181,112.5899,106.1252,253.9887,-3.1538e-06,-3.38e-06,0.0,0 STARLINK-3509,1 51737U 22016Z   23328.57362291 -.00000338  00000-0 -31538-5 0  9998,2 51737  53.2181 112.5899 0001333 106.1252 253.9887 15.08838499 97336,6917.885,95.438,540.672,538.828,0.0
51737.0,STARLINK-3509,PAYLOAD,2023-11-24 18:32:10,15.08844686,0.0001467,53.2174,111.6953,107.9092,252.206,-1.4423e-05,-5.18e-06,0.0,0 STARLINK-3509,1 51737U 22016Z   23328.77233910 -.00000518  00000-0 -14423-4 0  9998,2 51737  53.2174 111.6953 0001467 107.9092 252.2060 15.08844686 98429,6917.866,95.437,540.746,538.716,0.0
51737.0,STARLINK-3509,PAYLOAD,2023-11-25 13:36:47,15.08841193,0.000119,53.2174,108.127,105.0021,255.1103,0.00011675,1.571e-05,0.0,0 STARLINK-3509,1 51737U 22016Z   23329.56721985  .00001571  00000-0  11675-3 0  9993,2 51737  53.2174 108.1270 0001190 105.0021 255.1103 15.08841193 97481,6917.877,95.437,540.565,538.919,0.0
51737.0,STARLINK-3509,PAYLOAD,2023-11-25 18:22:56,15.08851227,0.0001387,53.2179,107.2351,96.1812,263.9338,0.00020239,2.936e-05,0.0,0 STARLINK-3509,1 51737U 22016Z   23329.76593250  .00002936  00000-0  20239-3 0  9999,2 51737  53.2179 107.2351 0001387  96.1812 263.9338 15.08851227 97512,6917.846,95.437,540.671,538.752,0.0
51737.0,STARLINK-3509,PAYLOAD,2023-11-26 13:27:34,15.08845886,0.0001377,53.2181,103.6691,102.1514,257.9633,0.0001066,1.409e-05,0.0,0 STARLINK-3509,1 51737U 22016Z   23330.56081558  .00001409  00000-0  10660-3 0  9993,2 51737  53.2181 103.6691 0001377 102.1514 257.9633 15.08845886 97636,6917.862,95.437,540.68,538.775,0.0
51737.0,STARLINK-3509,PAYLOAD,2023-11-26 18:13:43,15.08852858,0.0001236,53.2176,102.7765,95.6095,264.5038,0.00015693,2.211e-05,0.0,0 STARLINK-3509,1 51737U 22016Z   23330.75953077  .00002211  00000-0  15693-3 0  9991,2 51737  53.2176 102.7765 0001236  95.6095 264.5038 15.08852858 98727,6917.841,95.437,540.561,538.851,0.0
51737.0,STARLINK-3509,PAYLOAD,2023-11-27 14:53:45,15.0883253,0.0001332,53.2168,98.9067,107.9774,252.1363,-0.00023247,-3.985e-05,0.0,0 STARLINK-3509,1 51737U 22016Z   23331.62066190 -.00003985  00000-0 -23247-3 0  9994,2 51737  53.2168  98.9067 0001332 107.9774 252.1363 15.08832530 97792,6917.903,95.438,540.69,538.847,0.0
51737.0,STARLINK-3509,PAYLOAD,2023-11-27 16:29:08,15.08841571,0.0001249,53.2177,98.6129,69.2389,290.8737,-7.54e-05,-1.488e-05,0.0,0 STARLINK-3509,1 51737U 22016Z   23331.68690559 -.00001488  00000-0 -75400-4 0  9997,2 51737  53.2177  98.6129 0001249  69.2389 290.8737 15.08841571 98865,6917.876,95.437,540.605,538.877,0.0
51737.0,STARLINK-3509,PAYLOAD,2023-11-28 14:44:32,15.08845978,0.000199,53.2175,94.4522,47.1734,312.9425,-4.1613e-06,-3.54e-06,0.0,0 STARLINK-3509,1 51737U 22016Z   23332.61426331 -.00000354  00000-0 -41613-5 0  9997,2 51737  53.2175  94.4522 0001990  47.1734 312.9425 15.08845978 97949,6917.862,95.437,541.104,538.35,0.0
51737.0,STARLINK-3509,PAYLOAD,2023-11-29 11:24:33,15.08840973,0.0001536,53.2172,90.5896,128.2483,231.8647,0.00016862,2.397e-05,0.0,0 STARLINK-3509,1 51737U 22016Z   23333.47538223  .00002397  00000-0  16862-3 0  9999,2 51737  53.2172  90.5896 0001536 128.2483 231.8647 15.08840973 99133,6917.877,95.437,540.805,538.68,0.0
51737.0,STARLINK-3509,PAYLOAD,2023-11-29 14:35:19,15.08845416,0.0001324,53.218,89.9905,66.1285,293.9846,0.0001738,2.48e-05,0.0,0 STARLINK-3509,1 51737U 22016Z   23333.60786206  .00002480  00000-0  17380-3 0  9999,2 51737  53.2180  89.9905 0001324  66.1285 293.9846 15.08845416 98091,6917.864,95.437,540.645,538.813,0.0
51737.0,STARLINK-3509,PAYLOAD,2023-11-30 11:15:20,15.08842532,0.0001482,53.2179,86.1281,118.7485,241.3656,-3.9496e-05,-9.17e-06,0.0,0 STARLINK-3509,1 51737U 22016Z   23334.46898476 -.00000917  00000-0 -39496-4 0  9995,2 51737  53.2179  86.1281 0001482 118.7485 241.3656 15.08842532 99280,6917.873,95.437,540.763,538.712,0.0
51737.0,STARLINK-3509,PAYLOAD,2023-12-01 12:41:30,15.08845114,0.0001435,53.2183,81.3716,99.4985,260.617,3.5648e-05,2.8e-06,0.0,0 STARLINK-3509,1 51737U 22016Z   23335.52882699  .00000280  00000-0  35648-4 0  9999,2 51737  53.2183  81.3716 0001435  99.4985 260.6170 15.08845114 99445,6917.865,95.437,540.722,538.737,0.0
51737.0,STARLINK-3509,PAYLOAD,2023-12-02 10:56:52,15.08872002,0.0001242,53.2173,77.2035,106.0236,254.0893,0.00037637,5.712e-05,0.0,0 STARLINK-3509,1 51737U 22016Z   23336.45616072  .00005712  00000-0  37637-3 0  9996,2 51737  53.2173  77.2035 0001242 106.0236 254.0893 15.08872002 99582,6917.783,95.436,540.507,538.788,0.0
51737.0,STARLINK-3509,PAYLOAD,2023-12-02 12:32:16,15.08826471,0.0001207,53.2173,76.907,66.7991,293.3128,-0.0003314,-5.556e-05,0.0,0 STARLINK-3509,1 51737U 22016Z   23336.52241815 -.00005556  00000-0 -33140-3 0  9996,2 51737  53.2173  76.9070 0001207  66.7991 293.3128 15.08826471 98538,6917.922,95.438,540.622,538.952,0.0
51737.0,STARLINK-3509,PAYLOAD,2023-12-03 12:23:06,15.08800614,0.0001513,53.2175,72.4429,77.5479,282.5682,-0.00051297,-8.434e-05,0.0,0 STARLINK-3509,1 51737U 22016Z   23337.51604693 -.00008434  00000-0 -51297-3 0  9994,2 51737  53.2175  72.4429 0001513  77.5479 282.5682 15.08800614 99740,6918.001,95.44,540.912,538.819,0.0
51737.0,STARLINK-3509,PAYLOAD,2023-12-03 13:58:30,15.0880907,0.0001379,53.2181,72.1447,101.7481,258.3666,-0.00028018,-4.74e-05,0.0,0 STARLINK-3509,1 51737U 22016Z   23337.58230028 -.00004740  00000-0 -28018-3 0  9999,2 51737  53.2181  72.1447 0001379 101.7481 258.3666 15.08809070 98698,6917.975,95.44,540.794,538.886,0.0
